GLOBALSTAR M068         
1 32266U 07048D   24342.52700639 -.00000064  00000+0  22102-3 0  9995
2 32266  51.9855 166.4950 0002105  84.0330 322.7230 12.62810967793348
GLOBALSTAR M079         
1 37188U 10054A   24342.49150292 -.00000084  00000+0  11112-3 0  9995
2 37188  52.0057   3.3403 0000239 164.8952 341.9607 12.62267997652240
GLOBALSTAR M074         
1 37189U 10054B   24342.59515400 -.00000082  00000+0  12012-3 0  9991
2 37189  52.0035   2.3746 0000269  60.8408  78.5412 12.62260001652864
GLOBALSTAR M076         
1 37190U 10054C   24342.54197740 -.00000078  00000+0  14535-3 0  9998
2 37190  52.0049   2.6929 0000091 319.1623 176.8388 12.62274413652573
GLOBALSTAR M077         
1 37191U 10054D   24342.37665890 -.00000083  00000+0  11358-3 0  9992
2 37191  52.0085 319.9975 0000405  52.4588 111.7141 12.62267826652929
GLOBALSTAR M075         
1 37192U 10054E   24342.55772066 -.00000085  00000+0  10336-3 0  9994
2 37192  51.9967  45.0058 0000458 112.1404  36.7288 12.62269790651643
GLOBALSTAR M073         
1 37193U 10054F   24342.40282919 -.00000088  00000+0  89982-4 0  9999
2 37193  52.0073 319.1499 0000274  36.1273 128.6693 12.62273573653617
GLOBALSTAR M083         
1 37739U 11033A   24342.57589839 -.00000071  00000+0  18395-3 0  9993
2 37739  51.9863 267.6173 0000648  75.5676  95.9073 12.62269000622651
GLOBALSTAR M088         
1 37740U 11033B   24342.59984882 -.00000091  00000+0  72093-4 0  9992
2 37740  51.9701 173.1959 0001110  96.8673 304.1205 12.62266297618208
GLOBALSTAR M091         
1 37741U 11033C   24342.45007194 -.00000088  00000+0  89945-4 0  9990
2 37741  51.9972 136.8648 0001197 116.5532 262.3226 12.62271537618974
GLOBALSTAR M085         
1 37742U 11033D   24342.59392659 -.00000083  00000+0  11579-3 0  9991
2 37742  51.9870  87.6323 0000969 129.7830 244.2976 12.62269911619502
GLOBALSTAR M081         
1 37743U 11033E   24342.62018279 -.00000091  00000+0  69316-4 0  9991
2 37743  51.9959  90.2210 0000702 140.0623 233.4754 12.62273860619655
GLOBALSTAR M089         
1 37744U 11033F   24342.61405668 -.00000072  00000+0  17635-3 0  9998
2 37744  51.9950  44.5063 0000220  96.0340  68.7242 12.62273057620499
GLOBALSTAR M084         
1 38040U 11080A   24342.54939862 -.00000063  00000+0  22501-3 0  9998
2 38040  52.0013 271.8893 0000863  39.7450 131.3167 12.62271991598465
GLOBALSTAR M080         
1 38041U 11080B   24342.52321167 -.00000076  00000+0  15288-3 0  9998
2 38041  52.0066 273.5098 0000763  20.3591 150.8821 12.62269612598584
GLOBALSTAR M082         
1 38042U 11080C   24342.21345081 -.00000074  00000+0  16881-3 0  9994
2 38042  52.0063 229.8787 0001291  89.8733  53.4421 12.62270790599254
GLOBALSTAR M092         
1 38043U 11080D   24342.50597861 -.00000078  00000+0  14435-3 0  9999
2 38043  52.0099 319.3535 0000539  53.4627  99.8890 12.62270130597747
GLOBALSTAR M090         
1 38044U 11080E   24342.08646751 -.00000077  00000+0  14781-3 0  9999
2 38044  51.9874 224.3202 0001011  84.4759  81.9237 12.62264608599358
GLOBALSTAR M086         
1 38045U 11080F   24342.18637753 -.00000082  00000+0  12172-3 0  9991
2 38045  51.9882 224.5515 0000089  56.7509  84.3564 12.62264411599314
GLOBALSTAR M097         
1 39072U 13005A   24342.57807253 -.00000096  00000+0  45125-4 0  9998
2 39072  52.0020 137.7107 0000953 116.7140 243.3825 12.62268176546615
GLOBALSTAR M093         
1 39073U 13005B   24342.55113118 -.00000085  00000+0  10320-3 0  9993
2 39073  51.9790 131.3985 0001039 119.9126 240.1843 12.62277080546560
GLOBALSTAR M094         
1 39074U 13005C   24342.55141947 -.00000088  00000+0  86919-4 0  9996
2 39074  51.9979  45.5906 0000614 152.9068 207.1830 12.62265883548175
GLOBALSTAR M096         
1 39075U 13005D   24342.56461353 -.00000082  00000+0  12418-3 0  9990
2 39075  52.0071  93.9141 0000982 133.9632 226.1316 12.62265362547095
GLOBALSTAR M078         
1 39076U 13005E   24342.53769275 -.00000101  00000+0  15273-4 0  9997
2 39076  51.9840 178.7652 0001880 103.5432 256.5644 12.62267403545712
GLOBALSTAR M095         
1 39077U 13005F   24342.56453137 -.00000094  00000+0  53900-4 0  9998
2 39077  51.9771 175.9785 0001489 110.6321 249.4706 12.62269436545575
GLOBALSTAR M087         
1 52888U 22064A   24342.37223358 -.00000066  00000+0  12724-3 0  9994
2 52888  51.9776 325.5498 0035665  33.8051 326.5111 13.30672226120687
